0 FENGYUN 1C DEB
1 29886U 99025GG  13282.00698464  .00006830  00000-0  31176-2 0  2115
2 29886 099.2249 030.9936 0048818 160.5075 259.7566 14.21241759347935
0 FENGYUN 1C DEB
1 29886U 99025GG  13283.27291725  .00006767  00000-0  30883-2 0  2128
2 29886 099.2245 032.3153 0048748 157.1432 256.6648 14.21255899348117
0 FENGYUN 1C DEB
1 29886U 99025GG  13285.82031020  .00004533  00000-0  20759-2 0  2143
2 29886 099.2248 034.9751 0048514 150.3631 330.1094 14.21281600348470
0 FENGYUN 1C DEB
1 29886U 99025GG  13287.15724833  .00005205  00000-0  23800-2 0  2150
2 29886 099.2251 036.3715 0048359 146.7877 330.5160 14.21292017348661
0 FENGYUN 1C DEB
1 29886U 99025GG  13288.20476580  .00008841  00000-0  40242-2 0  2169
2 29886 099.2254 037.4656 0048204 143.9697 290.1657 14.21306717348810
0 FENGYUN 1C DEB
1 29886U 99025GG  13289.25018066  .00007030  00000-0  32045-2 0  2178
2 29886 099.2258 038.5573 0048077 141.1566 239.1143 14.21320011348969
0 FENGYUN 1C DEB
1 29886U 99025GG  13291.22895201  .00006159  00000-0  28096-2 0  2185
2 29886 099.2262 040.6240 0047851 135.7948 283.8266 14.21343533349249
0 FENGYUN 1C DEB
1 29886U 99025GG  13292.28384514  .00006254  00000-0  28521-2 0  2192
2 29886 099.2262 041.7258 0047701 132.9639 281.4049 14.21355775349390
0 FENGYUN 1C DEB
1 29886U 99025GG  13293.84559745  .00006919  00000-0  31519-2 0  2206
2 29886 099.2262 043.3571 0047412 128.7385 352.5462 14.21373003349614
0 FENGYUN 1C DEB
1 29886U 99025GG  13294.90071590  .00006535  00000-0  29782-2 0  2215
2 29886 099.2258 044.4593 0047210 125.8442 351.4540 14.21385881349761
